<?xml version="1.0" encoding="UTF-8"?>
<ndm xmlns:xsi="http://www.w3.org/2001/XMLSchema-instance" xsi:noNamespaceSchemaLocation="https://sanaregistry.org/r/ndmxml_unqualified/ndmxml-2.0.0-master-2.0.xsd">
<omm id="CCSDS_OMM_VERS" version="2.0">
<header><CREATION_DATE/><ORIGINATOR/></header><body><segment><metadata><OBJECT_NAME>ORBCOMM-X</OBJECT_NAME><OBJECT_ID>1991-050C</OBJECT_ID><CENTER_NAME>EARTH</CENTER_NAME><REF_FRAME>TEME</REF_FRAME><TIME_SYSTEM>UTC</TIME_SYSTEM><MEAN_ELEMENT_THEORY>SGP4</MEAN_ELEMENT_THEORY></metadata><data><meanElements><EPOCH>2024-08-30T10:20:30.040800</EPOCH><MEAN_MOTION>14.42687418</MEAN_MOTION><ECCENTRICITY>.0003442</ECCENTRICITY><INCLINATION>98.3841</INCLINATION><RA_OF_ASC_NODE>309.4449</RA_OF_ASC_NODE><ARG_OF_PERICENTER>5.7885</ARG_OF_PERICENTER><MEAN_ANOMALY>354.3344</MEAN_ANOMALY></meanElements><tleParameters><EPHEMERIS_TYPE>0</EPHEMERIS_TYPE><CLASSIFICATION_TYPE>U</CLASSIFICATION_TYPE><NORAD_CAT_ID>21576</NORAD_CAT_ID><ELEMENT_SET_NO>999</ELEMENT_SET_NO><REV_AT_EPOCH>74018</REV_AT_EPOCH><BSTAR>.32405E-3</BSTAR><MEAN_MOTION_DOT>.1035E-4</MEAN_MOTION_DOT><MEAN_MOTION_DDOT>0</MEAN_MOTION_DDOT></tleParameters></data></segment></body></omm>
<omm id="CCSDS_OMM_VERS" version="2.0">
<header><CREATION_DATE/><ORIGINATOR/></header><body><segment><metadata><OBJECT_NAME>ORBCOMM FM01</OBJECT_NAME><OBJECT_ID>1995-017A</OBJECT_ID><CENTER_NAME>EARTH</CENTER_NAME><REF_FRAME>TEME</REF_FRAME><TIME_SYSTEM>UTC</TIME_SYSTEM><MEAN_ELEMENT_THEORY>SGP4</MEAN_ELEMENT_THEORY></metadata><data><meanElements><EPOCH>2024-08-30T06:51:33.831072</EPOCH><MEAN_MOTION>14.82201566</MEAN_MOTION><ECCENTRICITY>.0002838</ECCENTRICITY><INCLINATION>69.9648</INCLINATION><RA_OF_ASC_NODE>75.7240</RA_OF_ASC_NODE><ARG_OF_PERICENTER>39.9813</ARG_OF_PERICENTER><MEAN_ANOMALY>320.1546</MEAN_ANOMALY></meanElements><tleParameters><EPHEMERIS_TYPE>0</EPHEMERIS_TYPE><CLASSIFICATION_TYPE>U</CLASSIFICATION_TYPE><NORAD_CAT_ID>23545</NORAD_CAT_ID><ELEMENT_SET_NO>999</ELEMENT_SET_NO><REV_AT_EPOCH>56927</REV_AT_EPOCH><BSTAR>.1574E-2</BSTAR><MEAN_MOTION_DOT>.12512E-3</MEAN_MOTION_DOT><MEAN_MOTION_DDOT>0</MEAN_MOTION_DDOT></tleParameters></data></segment></body></omm>
<omm id="CCSDS_OMM_VERS" version="2.0">
<header><CREATION_DATE/><ORIGINATOR/></header><body><segment><metadata><OBJECT_NAME>ORBCOMM FM02</OBJECT_NAME><OBJECT_ID>1995-017B</OBJECT_ID><CENTER_NAME>EARTH</CENTER_NAME><REF_FRAME>TEME</REF_FRAME><TIME_SYSTEM>UTC</TIME_SYSTEM><MEAN_ELEMENT_THEORY>SGP4</MEAN_ELEMENT_THEORY></metadata><data><meanElements><EPOCH>2024-08-30T08:10:42.136608</EPOCH><MEAN_MOTION>14.81898956</MEAN_MOTION><ECCENTRICITY>.0004673</ECCENTRICITY><INCLINATION>69.9682</INCLINATION><RA_OF_ASC_NODE>95.1862</RA_OF_ASC_NODE><ARG_OF_PERICENTER>34.5402</ARG_OF_PERICENTER><MEAN_ANOMALY>325.6052</MEAN_ANOMALY></meanElements><tleParameters><EPHEMERIS_TYPE>0</EPHEMERIS_TYPE><CLASSIFICATION_TYPE>U</CLASSIFICATION_TYPE><NORAD_CAT_ID>23546</NORAD_CAT_ID><ELEMENT_SET_NO>999</ELEMENT_SET_NO><REV_AT_EPOCH>56892</REV_AT_EPOCH><BSTAR>.16052E-2</BSTAR><MEAN_MOTION_DOT>.12671E-3</MEAN_MOTION_DOT><MEAN_MOTION_DDOT>0</MEAN_MOTION_DDOT></tleParameters></data></segment></body></omm>
<omm id="CCSDS_OMM_VERS" version="2.0">
<header><CREATION_DATE/><ORIGINATOR/></header><body><segment><metadata><OBJECT_NAME>ORBCOMM FM08</OBJECT_NAME><OBJECT_ID>1997-084A</OBJECT_ID><CENTER_NAME>EARTH</CENTER_NAME><REF_FRAME>TEME</REF_FRAME><TIME_SYSTEM>UTC</TIME_SYSTEM><MEAN_ELEMENT_THEORY>SGP4</MEAN_ELEMENT_THEORY></metadata><data><meanElements><EPOCH>2024-08-30T11:47:29.098464</EPOCH><MEAN_MOTION>14.43350782</MEAN_MOTION><ECCENTRICITY>.0009061</ECCENTRICITY><INCLINATION>45.0152</INCLINATION><RA_OF_ASC_NODE>321.0705</RA_OF_ASC_NODE><ARG_OF_PERICENTER>229.7515</ARG_OF_PERICENTER><MEAN_ANOMALY>130.2543</MEAN_ANOMALY></meanElements><tleParameters><EPHEMERIS_TYPE>0</EPHEMERIS_TYPE><CLASSIFICATION_TYPE>U</CLASSIFICATION_TYPE><NORAD_CAT_ID>25112</NORAD_CAT_ID><ELEMENT_SET_NO>999</ELEMENT_SET_NO><REV_AT_EPOCH>39933</REV_AT_EPOCH><BSTAR>.12822E-2</BSTAR><MEAN_MOTION_DOT>.4226E-4</MEAN_MOTION_DOT><MEAN_MOTION_DDOT>0</MEAN_MOTION_DDOT></tleParameters></data></segment></body></omm>
<omm id="CCSDS_OMM_VERS" version="2.0">
<header><CREATION_DATE/><ORIGINATOR/></header><body><segment><metadata><OBJECT_NAME>ORBCOMM FM10</OBJECT_NAME><OBJECT_ID>1997-084B</OBJECT_ID><CENTER_NAME>EARTH</CENTER_NAME><REF_FRAME>TEME</REF_FRAME><TIME_SYSTEM>UTC</TIME_SYSTEM><MEAN_ELEMENT_THEORY>SGP4</MEAN_ELEMENT_THEORY></metadata><data><meanElements><EPOCH>2024-08-30T12:09:11.569824</EPOCH><MEAN_MOTION>14.43235754</MEAN_MOTION><ECCENTRICITY>.0006194</ECCENTRICITY><INCLINATION>45.0166</INCLINATION><RA_OF_ASC_NODE>322.9560</RA_OF_ASC_NODE><ARG_OF_PERICENTER>210.3677</ARG_OF_PERICENTER><MEAN_ANOMALY>149.6815</MEAN_ANOMALY></meanElements><tleParameters><EPHEMERIS_TYPE>0</EPHEMERIS_TYPE><CLASSIFICATION_TYPE>U</CLASSIFICATION_TYPE><NORAD_CAT_ID>25113</NORAD_CAT_ID><ELEMENT_SET_NO>999</ELEMENT_SET_NO><REV_AT_EPOCH>57448</REV_AT_EPOCH><BSTAR>.14978E-2</BSTAR><MEAN_MOTION_DOT>.4948E-4</MEAN_MOTION_DOT><MEAN_MOTION_DDOT>0</MEAN_MOTION_DDOT></tleParameters></data></segment></body></omm>
<omm id="CCSDS_OMM_VERS" version="2.0">
<header><CREATION_DATE/><ORIGINATOR/></header><body><segment><metadata><OBJECT_NAME>ORBCOMM FM11</OBJECT_NAME><OBJECT_ID>1997-084C</OBJECT_ID><CENTER_NAME>EARTH</CENTER_NAME><REF_FRAME>TEME</REF_FRAME><TIME_SYSTEM>UTC</TIME_SYSTEM><MEAN_ELEMENT_THEORY>SGP4</MEAN_ELEMENT_THEORY></metadata><data><meanElements><EPOCH>2024-08-30T12:51:10.567008</EPOCH><MEAN_MOTION>14.43080584</MEAN_MOTION><ECCENTRICITY>.0006963</ECCENTRICITY><INCLINATION>45.0147</INCLINATION><RA_OF_ASC_NODE>322.9876</RA_OF_ASC_NODE><ARG_OF_PERICENTER>207.8662</ARG_OF_PERICENTER><MEAN_ANOMALY>152.1816</MEAN_ANOMALY></meanElements><tleParameters><EPHEMERIS_TYPE>0</EPHEMERIS_TYPE><CLASSIFICATION_TYPE>U</CLASSIFICATION_TYPE><NORAD_CAT_ID>25114</NORAD_CAT_ID><ELEMENT_SET_NO>999</ELEMENT_SET_NO><REV_AT_EPOCH>39945</REV_AT_EPOCH><BSTAR>.13573E-2</BSTAR><MEAN_MOTION_DOT>.4456E-4</MEAN_MOTION_DOT><MEAN_MOTION_DDOT>0</MEAN_MOTION_DDOT></tleParameters></data></segment></body></omm>
<omm id="CCSDS_OMM_VERS" version="2.0">
<header><CREATION_DATE/><ORIGINATOR/></header><body><segment><metadata><OBJECT_NAME>ORBCOMM FM12</OBJECT_NAME><OBJECT_ID>1997-084D</OBJECT_ID><CENTER_NAME>EARTH</CENTER_NAME><REF_FRAME>TEME</REF_FRAME><TIME_SYSTEM>UTC</TIME_SYSTEM><MEAN_ELEMENT_THEORY>SGP4</MEAN_ELEMENT_THEORY></metadata><data><meanElements><EPOCH>2024-08-30T11:57:36.226944</EPOCH><MEAN_MOTION>14.43035346</MEAN_MOTION><ECCENTRICITY>.0006043</ECCENTRICITY><INCLINATION>45.0157</INCLINATION><RA_OF_ASC_NODE>322.9012</RA_OF_ASC_NODE><ARG_OF_PERICENTER>210.4835</ARG_OF_PERICENTER><MEAN_ANOMALY>149.5665</MEAN_ANOMALY></meanElements><tleParameters><EPHEMERIS_TYPE>0</EPHEMERIS_TYPE><CLASSIFICATION_TYPE>U</CLASSIFICATION_TYPE><NORAD_CAT_ID>25115</NORAD_CAT_ID><ELEMENT_SET_NO>999</ELEMENT_SET_NO><REV_AT_EPOCH>39924</REV_AT_EPOCH><BSTAR>.1265E-2</BSTAR><MEAN_MOTION_DOT>.4139E-4</MEAN_MOTION_DOT><MEAN_MOTION_DDOT>0</MEAN_MOTION_DDOT></tleParameters></data></segment></body></omm>
<omm id="CCSDS_OMM_VERS" version="2.0">
<header><CREATION_DATE/><ORIGINATOR/></header><body><segment><metadata><OBJECT_NAME>ORBCOMM FM09</OBJECT_NAME><OBJECT_ID>1997-084E</OBJECT_ID><CENTER_NAME>EARTH</CENTER_NAME><REF_FRAME>TEME</REF_FRAME><TIME_SYSTEM>UTC</TIME_SYSTEM><MEAN_ELEMENT_THEORY>SGP4</MEAN_ELEMENT_THEORY></metadata><data><meanElements><EPOCH>2024-08-30T12:17:56.850720</EPOCH><MEAN_MOTION>14.42996806</MEAN_MOTION><ECCENTRICITY>.0006581</ECCENTRICITY><INCLINATION>45.0161</INCLINATION><RA_OF_ASC_NODE>323.5550</RA_OF_ASC_NODE><ARG_OF_PERICENTER>195.6240</ARG_OF_PERICENTER><MEAN_ANOMALY>164.4408</MEAN_ANOMALY></meanElements><tleParameters><EPHEMERIS_TYPE>0</EPHEMERIS_TYPE><CLASSIFICATION_TYPE>U</CLASSIFICATION_TYPE><NORAD_CAT_ID>25116</NORAD_CAT_ID><ELEMENT_SET_NO>999</ELEMENT_SET_NO><REV_AT_EPOCH>39945</REV_AT_EPOCH><BSTAR>.11924E-2</BSTAR><MEAN_MOTION_DOT>.389E-4</MEAN_MOTION_DOT><MEAN_MOTION_DDOT>0</MEAN_MOTION_DDOT></tleParameters></data></segment></body></omm>

</ndm>
