ORBCOMM-X               
1 21576U 91050C   24243.43090325  .00001035  00000+0  32405-3 0  9992
2 21576  98.3841 309.4449 0003442   5.7885 354.3344 14.42687418740186
ORBCOMM FM01            
1 23545U 95017A   24243.28580823  .00012512  00000+0  15740-2 0  9991
2 23545  69.9648  75.7240 0002838  39.9813 320.1546 14.82201566569277
ORBCOMM FM02            
1 23546U 95017B   24243.34076547  .00012671  00000+0  16052-2 0  9995
2 23546  69.9682  95.1862 0004673  34.5402 325.6052 14.81898956568923
ORBCOMM FM08            
1 25112U 97084A   24243.49130901  .00004226  00000+0  12822-2 0  9991
2 25112  45.0152 321.0705 0009061 229.7515 130.2543 14.43350782399337
ORBCOMM FM10            
1 25113U 97084B   24243.50638391  .00004948  00000+0  14978-2 0  9995
2 25113  45.0166 322.9560 0006194 210.3677 149.6815 14.43235754574489
ORBCOMM FM11            
1 25114U 97084C   24243.53553897  .00004456  00000+0  13573-2 0  9990
2 25114  45.0147 322.9876 0006963 207.8662 152.1816 14.43080584399459
ORBCOMM FM12            
1 25115U 97084D   24243.49833596  .00004139  00000+0  12650-2 0  9996
2 25115  45.0157 322.9012 0006043 210.4835 149.5665 14.43035346399249
ORBCOMM FM09            
1 25116U 97084E   24243.51246355  .00003890  00000+0  11924-2 0  9997
2 25116  45.0161 323.5550 0006581 195.6240 164.4408 14.42996806399450
